[{"OBJECT_NAME":"SL-8 R/B","OBJECT_ID":"1988-053B","EPOCH":"2026-03-20T06:49:04.912896","MEAN_MOTION":14.38922585,"ECCENTRICITY":0.00215435,"INCLINATION":74.045,"RA_OF_ASC_NODE":92.936,"ARG_OF_PERICENTER":270.8485,"MEAN_ANOMALY":100.1148,"EPHEMERIS_TYPE":0,"CLASSIFICATION_TYPE":"U","NORAD_CAT_ID":19257,"ELEMENT_SET_NO":999,"REV_AT_EPOCH":97812,"BSTAR":9.6083584e-5,"MEAN_MOTION_DOT":2.7e-6,"MEAN_MOTION_DDOT":0},{"OBJECT_NAME":"COSMOS 1975","OBJECT_ID":"1988-093A","EPOCH":"2026-03-20T01:41:58.855776","MEAN_MOTION":15.28201276,"ECCENTRICITY":0.00129957,"INCLINATION":82.5161,"RA_OF_ASC_NODE":107.261,"ARG_OF_PERICENTER":129.3905,"MEAN_ANOMALY":230.8488,"EPHEMERIS_TYPE":0,"CLASSIFICATION_TYPE":"U","NORAD_CAT_ID":19573,"ELEMENT_SET_NO":999,"REV_AT_EPOCH":2099,"BSTAR":0.00020020688,"MEAN_MOTION_DOT":5.547e-5,"MEAN_MOTION_DDOT":0},{"OBJECT_NAME":"SL-14 R/B","OBJECT_ID":"1988-093B","EPOCH":"2026-03-20T07:32:22.730208","MEAN_MOTION":14.85668794,"ECCENTRICITY":0.00208835,"INCLINATION":82.5327,"RA_OF_ASC_NODE":32.0708,"ARG_OF_PERICENTER":7.5124,"MEAN_ANOMALY":108.8569,"EPHEMERIS_TYPE":0,"CLASSIFICATION_TYPE":"U","NORAD_CAT_ID":19574,"ELEMENT_SET_NO":999,"REV_AT_EPOCH":259,"BSTAR":5.3849562e-5,"MEAN_MOTION_DOT":4.93e-6,"MEAN_MOTION_DDOT":0},{"OBJECT_NAME":"SL-16 R/B","OBJECT_ID":"1988-102B","EPOCH":"2026-03-20T06:55:03.923904","MEAN_MOTION":14.16155907,"ECCENTRICITY":0.00147113,"INCLINATION":70.9988,"RA_OF_ASC_NODE":129.1977,"ARG_OF_PERICENTER":345.1121,"MEAN_ANOMALY":14.9567,"EPHEMERIS_TYPE":0,"CLASSIFICATION_TYPE":"U","NORAD_CAT_ID":19650,"ELEMENT_SET_NO":999,"REV_AT_EPOCH":92839,"BSTAR":-3.7483194e-5,"MEAN_MOTION_DOT":-1.22e-6,"MEAN_MOTION_DDOT":0},{"OBJECT_NAME":"INTERCOSMOS 24","OBJECT_ID":"1989-080A","EPOCH":"2026-03-20T06:53:49.664832","MEAN_MOTION":12.59572157,"ECCENTRICITY":0.11866918,"INCLINATION":82.6016,"RA_OF_ASC_NODE":97.5012,"ARG_OF_PERICENTER":268.1968,"MEAN_ANOMALY":78.3158,"EPHEMERIS_TYPE":0,"CLASSIFICATION_TYPE":"U","NORAD_CAT_ID":20261,"ELEMENT_SET_NO":999,"REV_AT_EPOCH":66813,"BSTAR":0.00014137277,"MEAN_MOTION_DOT":4.76e-6,"MEAN_MOTION_DDOT":0},{"OBJECT_NAME":"SL-14 R/B","OBJECT_ID":"1989-080C","EPOCH":"2026-03-20T06:40:56.596512","MEAN_MOTION":12.50504699,"ECCENTRICITY":0.12308169,"INCLINATION":82.5967,"RA_OF_ASC_NODE":166.3914,"ARG_OF_PERICENTER":160.5561,"MEAN_ANOMALY":204.712,"EPHEMERIS_TYPE":0,"CLASSIFICATION_TYPE":"U","NORAD_CAT_ID":20262,"ELEMENT_SET_NO":999,"REV_AT_EPOCH":66147,"BSTAR":0.00010757381,"MEAN_MOTION_DOT":3.81e-6,"MEAN_MOTION_DDOT":0},{"OBJECT_NAME":"DELTA 1 R/B","OBJECT_ID":"1989-089B","EPOCH":"2026-03-20T02:31:24.080448","MEAN_MOTION":14.50671661,"ECCENTRICITY":0.0070719,"INCLINATION":97.0697,"RA_OF_ASC_NODE":284.8866,"ARG_OF_PERICENTER":89.7093,"MEAN_ANOMALY":271.2208,"EPHEMERIS_TYPE":0,"CLASSIFICATION_TYPE":"U","NORAD_CAT_ID":20323,"ELEMENT_SET_NO":999,"REV_AT_EPOCH":89724,"BSTAR":8.6951953e-5,"MEAN_MOTION_DOT":3.18e-6,"MEAN_MOTION_DDOT":0},{"OBJECT_NAME":"ARIANE 40 R/B","OBJECT_ID":"1990-005H","EPOCH":"2026-03-20T04:01:27.747264","MEAN_MOTION":14.39876846,"ECCENTRICITY":0.00105148,"INCLINATION":98.3061,"RA_OF_ASC_NODE":139.5158,"ARG_OF_PERICENTER":166.9018,"MEAN_ANOMALY":193.2446,"EPHEMERIS_TYPE":0,"CLASSIFICATION_TYPE":"U","NORAD_CAT_ID":20443,"ELEMENT_SET_NO":999,"REV_AT_EPOCH":89431,"BSTAR":7.8512022e-5,"MEAN_MOTION_DOT":2.05e-6,"MEAN_MOTION_DDOT":0},{"OBJECT_NAME":"DELTA 2 R/B(1)","OBJECT_ID":"1990-008B","EPOCH":"2026-03-20T03:34:54.803424","MEAN_MOTION":15.57257585,"ECCENTRICITY":0.00815089,"INCLINATION":35.6026,"RA_OF_ASC_NODE":106.1373,"ARG_OF_PERICENTER":355.6437,"MEAN_ANOMALY":4.3584,"EPHEMERIS_TYPE":0,"CLASSIFICATION_TYPE":"U","NORAD_CAT_ID":20453,"ELEMENT_SET_NO":999,"REV_AT_EPOCH":92776,"BSTAR":0.0006206102,"MEAN_MOTION_DOT":0.00054938,"MEAN_MOTION_DDOT":0},{"OBJECT_NAME":"COSMOS 2058","OBJECT_ID":"1990-010A","EPOCH":"2026-03-19T23:26:03.887232","MEAN_MOTION":15.11407936,"ECCENTRICITY":0.00079813,"INCLINATION":82.4675,"RA_OF_ASC_NODE":37.2908,"ARG_OF_PERICENTER":307.7366,"MEAN_ANOMALY":52.314,"EPHEMERIS_TYPE":0,"CLASSIFICATION_TYPE":"U","NORAD_CAT_ID":20465,"ELEMENT_SET_NO":999,"REV_AT_EPOCH":94379,"BSTAR":0.00022176166,"MEAN_MOTION_DOT":3.775e-5,"MEAN_MOTION_DDOT":0},{"OBJECT_NAME":"SL-14 R/B","OBJECT_ID":"1990-010B","EPOCH":"2026-03-20T00:08:55.389696","MEAN_MOTION":14.83577859,"ECCENTRICITY":0.0018329,"INCLINATION":82.4987,"RA_OF_ASC_NODE":257.695,"ARG_OF_PERICENTER":265.6455,"MEAN_ANOMALY":94.2665,"EPHEMERIS_TYPE":0,"CLASSIFICATION_TYPE":"U","NORAD_CAT_ID":20466,"ELEMENT_SET_NO":999,"REV_AT_EPOCH":93001,"BSTAR":4.5621557e-5,"MEAN_MOTION_DOT":4.0e-6,"MEAN_MOTION_DDOT":0},{"OBJECT_NAME":"SL-14 R/B","OBJECT_ID":"1990-018B","EPOCH":"2026-03-19T19:57:13.776480","MEAN_MOTION":14.82155178,"ECCENTRICITY":0.0017456,"INCLINATION":82.5221,"RA_OF_ASC_NODE":213.6111,"ARG_OF_PERICENTER":61.3004,"MEAN_ANOMALY":298.9962,"EPHEMERIS_TYPE":0,"CLASSIFICATION_TYPE":"U","NORAD_CAT_ID":20511,"ELEMENT_SET_NO":999,"REV_AT_EPOCH":92408,"BSTAR":5.0160676e-5,"MEAN_MOTION_DOT":4.24e-6,"MEAN_MOTION_DDOT":0},{"OBJECT_NAME":"HST","OBJECT_ID":"1990-037B","EPOCH":"2026-03-19T23:46:35.087232","MEAN_MOTION":15.29637314,"ECCENTRICITY":0.00015384,"INCLINATION":28.4725,"RA_OF_ASC_NODE":329.7224,"ARG_OF_PERICENTER":237.6208,"MEAN_ANOMALY":122.4239,"EPHEMERIS_TYPE":0,"CLASSIFICATION_TYPE":"U","NORAD_CAT_ID":20580,"ELEMENT_SET_NO":999,"REV_AT_EPOCH":77489,"BSTAR":0.00022019149,"MEAN_MOTION_DOT":6.738e-5,"MEAN_MOTION_DDOT":0},{"OBJECT_NAME":"SL-16 R/B","OBJECT_ID":"1990-046B","EPOCH":"2026-03-20T05:31:36.327648","MEAN_MOTION":14.15012018,"ECCENTRICITY":0.00162107,"INCLINATION":70.9954,"RA_OF_ASC_NODE":275.7753,"ARG_OF_PERICENTER":285.6681,"MEAN_ANOMALY":74.2653,"EPHEMERIS_TYPE":0,"CLASSIFICATION_TYPE":"U","NORAD_CAT_ID":20625,"ELEMENT_SET_NO":999,"REV_AT_EPOCH":84988,"BSTAR":6.2199026e-5,"MEAN_MOTION_DOT":7.3e-7,"MEAN_MOTION_DDOT":0},{"OBJECT_NAME":"COSMOS 2084","OBJECT_ID":"1990-055A","EPOCH":"2026-03-20T00:23:01.933440","MEAN_MOTION":15.05704406,"ECCENTRICITY":0.00155022,"INCLINATION":62.789,"RA_OF_ASC_NODE":300.3574,"ARG_OF_PERICENTER":192.868,"MEAN_ANOMALY":167.2027,"EPHEMERIS_TYPE":0,"CLASSIFICATION_TYPE":"U","NORAD_CAT_ID":20663,"ELEMENT_SET_NO":999,"REV_AT_EPOCH":93787,"BSTAR":0.0001415164,"MEAN_MOTION_DOT":1.858e-5,"MEAN_MOTION_DDOT":0},{"OBJECT_NAME":"SL-6 R/B(2)","OBJECT_ID":"1990-055D","EPOCH":"2026-03-19T19:31:06.838176","MEAN_MOTION":15.0364199,"ECCENTRICITY":0.00264532,"INCLINATION":62.7827,"RA_OF_ASC_NODE":219.4212,"ARG_OF_PERICENTER":349.423,"MEAN_ANOMALY":10.631,"EPHEMERIS_TYPE":0,"CLASSIFICATION_TYPE":"U","NORAD_CAT_ID":20666,"ELEMENT_SET_NO":999,"REV_AT_EPOCH":93971,"BSTAR":0.00014531485,"MEAN_MOTION_DOT":1.81e-5,"MEAN_MOTION_DDOT":0},{"OBJECT_NAME":"SL-8 R/B","OBJECT_ID":"1990-078B","EPOCH":"2026-03-20T04:35:27.989952","MEAN_MOTION":14.89374972,"ECCENTRICITY":0.03600912,"INCLINATION":82.9006,"RA_OF_ASC_NODE":241.8616,"ARG_OF_PERICENTER":338.6324,"MEAN_ANOMALY":20.017,"EPHEMERIS_TYPE":0,"CLASSIFICATION_TYPE":"U","NORAD_CAT_ID":20775,"ELEMENT_SET_NO":999,"REV_AT_EPOCH":81086,"BSTAR":0.00030993677,"MEAN_MOTION_DOT":0.00010495,"MEAN_MOTION_DDOT":0}]
